{
    "links": {
        "self": "http://www.neowsapp.com/rest/v1/neo/3557878?api_key=iIulBulltgU6a56xZRHN4H3l9WmuAYTsLGpBGhQ2"
    },
    "id": "3557878",
    "neo_reference_id": "3557878",
    "name": "(2011 DW4)",
    "designation": "2011 DW4",
    "nasa_jpl_url": "http://ssd.jpl.nasa.gov/sbdb.cgi?sstr=3557878",
    "absolute_magnitude_h": 27.3,
    "estimated_diameter": {
        "kilometers": {
            "estimated_diameter_min": 0.0092162655,
            "estimated_diameter_max": 0.0206081961
        },
        "meters": {
            "estimated_diameter_min": 9.216265485,
            "estimated_diameter_max": 20.6081961232
        },
        "miles": {
            "estimated_diameter_min": 0.0057267201,
            "estimated_diameter_max": 0.0128053354
        },
        "feet": {
            "estimated_diameter_min": 30.2370924539,
            "estimated_diameter_max": 67.6121941689
        }
    },
    "is_potentially_hazardous_asteroid": false,
    "close_approach_data": [
        {
            "close_approach_date": "2011-03-03",
            "close_approach_date_full": "2011-Mar-03 05:15",
            "epoch_date_close_approach": 1299129300000,
            "relative_velocity": {
                "kilometers_per_second": "4.5995028847",
                "kilometers_per_hour": "16558.2103850948",
                "miles_per_hour": "10288.6280028941"
            },
            "miss_distance": {
                "astronomical": "0.017569181",
                "lunar": "6.834411409",
                "kilometers": "2628312.05524447",
                "miles": "1633157.380614886"
            },
            "orbiting_body": "Earth"
        }
    ],
    "orbital_data": {
        "orbit_id": "5",
        "orbit_determination_date": "2017-04-06 08:54:22",
        "first_observation_date": "2011-02-25",
        "last_observation_date": "2011-02-25",
        "data_arc_in_days": null,
        "observations_used": 14,
        "orbit_uncertainty": "9",
        "minimum_orbit_intersection": ".0171127",
        "jupiter_tisserand_invariant": "4.337",
        "epoch_osculation": "2455617.5",
        "eccentricity": ".3581255998465501",
        "semi_major_axis": "1.571340151148103",
        "inclination": "1.195933833092979",
        "ascending_node_longitude": "156.5713584234298",
        "orbital_period": "719.4551713491879",
        "perihelion_distance": "1.00860301695522",
        "perihelion_argument": "6.113211345722572",
        "aphelion_distance": "2.134077285340986",
        "perihelion_time": "2455624.120339696343",
        "mean_anomaly": "356.6873234280684",
        "mean_motion": ".5003786397488744",
        "equinox": "J2000",
        "orbit_class": {
            "orbit_class_type": "APO",
            "orbit_class_description": "Near-Earth asteroid orbits which cross the Earth’s orbit similar to that of 1862 Apollo",
            "orbit_class_range": "a (semi-major axis) > 1.0 AU; q (perihelion) < 1.017 AU"
        }
    },
    "is_sentry_object": false
}